satname,norad_id,inclination_deg,eccentricity,mean_motion_rev_per_day,perigee_km,apogee_km,l1,l2
STARLINK-1190,45083,53.0287,0.0002813,16.26925502,198.9645278606322,202.6658463611002,1 45083U 20006AR  25328.91341709  .03003328  12004-4  85163-3 0  9998,2 45083  53.0287 310.7081 0002813 275.8630  84.2090 16.26925502321874
STARLINK-1185,45087,53.0547,0.0001032,15.06396058,546.5089424088628,547.9383368448816,1 45087U 20006AV  25328.31840999  .00000070  00000+0  23562-4 0  9993,2 45087  53.0547 359.6466 0001032  86.7510 273.3597 15.06396058321142
STARLINK-1183,45088,53.0559,0.0001515,15.06398698,546.1663574725499,548.2647392947101,1 45088U 20006AW  25328.47322299 -.00000125  00000+0  10503-4 0  9992,2 45088  53.0559 358.9528 0001515  96.0165 264.0996 15.06398698321167
STARLINK-1142,45093,53.0303,0.0008462,15.73058501,344.4681375717937,355.85511016282726,1 45093U 20006BB  25328.91670139  .00312206  00000+0  21568-2 0  9992,2 45093  53.0303 279.6695 0008462 100.1484  41.2119 15.73058501  6008
STARLINK-1152,45096,53.0454,0.0003934,15.26278373,484.2486801684927,489.65013015207296,1 45096U 20006BE  25328.31323757  .00065948  00000+0  25005-2 0  9998,2 45096  53.0454 338.7285 0003934 296.5319  63.5275 15.26278373321432
STARLINK-1184,45098,53.0553,0.0001418,15.064018,546.2240275597751,548.1880548462605,1 45098U 20006BG  25328.48796933  .00006443  00000+0  45101-3 0  9993,2 45098  53.0553 358.8887 0001418  82.4142 277.7008 15.06401800321160
STARLINK-1193,45100,53.0553,0.0001512,15.06401454,546.1599896131074,548.2542136694428,1 45100U 20006BJ  25328.35158656  .00002036  00000+0  15556-3 0  9992,2 45100  53.0553 359.5000 0001512  87.6390 272.4772 15.06401454321149
STARLINK-1143,45179,53.0527,0.0006798,15.44042226,429.56273366053665,438.8247785565418,1 45179U 20012B   25328.68899987  .00136532  00000+0  28999-2 0  9993,2 45179  53.0527 115.5506 0006798 135.4843 224.6710 15.44042226319613
STARLINK-1202,45183,53.0526,0.0001851,15.06404915,545.9146149823455,548.4783734419034,1 45183U 20012F   25328.67963392 -.00003037  00000+0 -18503-3 0  9995,2 45183  53.0526 158.0273 0001851 107.6029 252.5162 15.06404915319012
STARLINK-1216,45185,53.0537,0.0001529,15.06398173,546.1582707851285,548.2760440864731,1 45185U 20012H   25328.67226674  .00001209  00000+0  10004-3 0  9997,2 45185  53.0537 158.0595 0001529  87.3953 272.7211 15.06398173318954
STARLINK-1225,45187,53.0536,0.0001292,15.06400335,546.3157763106838,548.1052861127482,1 45187U 20012K   25328.69070176  .00000369  00000+0  43687-4 0  9995,2 45187  53.0536 157.9746 0001292  95.2686 264.8450 15.06400335319007
STARLINK-1230,45189,53.0535,0.0001344,15.06391648,546.3063854471075,548.167926020169,1 45189U 20012M   25328.69438644  .00001439  00000+0  11553-3 0  9990,2 45189  53.0535 157.9641 0001344  91.1815 268.9328 15.06391648316236
STARLINK-1234,45190,53.0516,0.0002362,15.39987324,444.5348700934983,447.7586617445186,1 45190U 20012N   25328.91670139  .00121266  00000+0  29574-2 0  9996,2 45190  53.0516 108.5637 0002362 248.7941 118.7046 15.39987324  5877
STARLINK-1269,45197,53.0525,0.0001314,15.06407899,546.2773611273033,548.0973363661533,1 45197U 20012V   25328.70543612 -.00005556  00000+0 -35433-3 0  9992,2 45197  53.0525 157.9129 0001314  97.9075 262.2063 15.06407899318987
STARLINK-1154,45198,53.0536,7.79e-05,15.06399725,546.6729160554787,547.7518854921182,1 45198U 20012W   25328.76257272  .00001430  00000+0  11485-3 0  9999,2 45198  53.0536 137.6542 0000779  55.2983 304.8080 15.06399725319243
STARLINK-1199,45201,53.0542,0.0001463,15.06400706,546.1962159733412,548.222572328269,1 45201U 20012Z   25328.77363620  .00000165  00000+0  29988-4 0  9992,2 45201  53.0542 137.6063 0001463 102.2791 257.8362 15.06400706319303
STARLINK-1209,45206,53.0529,0.0001996,15.33451639,464.15742693618904,466.8894161764738,1 45206U 20012AE  25328.74622244  .00111519  00000+0  33620-2 0  9996,2 45206  53.0529 111.0335 0001996 259.1173 100.9603 15.33451639318720
STARLINK-1210,45207,53.0235,0.0006351,15.62673231,375.64676098169275,384.2308688818184,1 45207U 20012AF  25328.66220720  .00061924  00000+0  67854-3 0  9992,2 45207  53.0235  68.7171 0006351 133.3273 226.8270 15.62673231320261
STARLINK-1231,45212,53.0494,0.0007445,15.13803618,519.4739678853502,529.752162732595,1 45212U 20012AL  25328.68179411  .00035925  00000+0  19723-2 0  9993,2 45212  53.0494 135.2191 0007445 121.6082 238.5637 15.13803618319286
STARLINK-1271,45217,53.0541,0.0002083,15.06334298,545.9703403737121,548.8555244755607,1 45217U 20012AR  25328.69256779  .00027583  00000+0  18667-2 0  9999,2 45217  53.0541 137.9705 0002083  89.5448 270.5779 15.06334298319294
STARLINK-1191,45222,53.0544,0.0001968,15.06394289,545.8661493451609,548.5919734269228,1 45222U 20012AW  25328.63541006  .00001139  00000+0  95374-4 0  9990,2 45222  53.0544 118.2250 0001968 108.4012 251.7191 15.06394289319564
STARLINK-1212,45223,53.0539,0.000138,15.06398483,546.2605085860796,548.1719060713021,1 45223U 20012AX  25328.78661062  .00002460  00000+0  18399-3 0  9991,2 45223  53.0539 118.2021 0001380  87.3906 272.7241 15.06398483319581
STARLINK-1215,45225,53.0535,0.0001498,15.0640063,546.1722101549512,548.2470440044235,1 45225U 20012AZ  25328.67595244  .00002021  00000+0  15454-3 0  9991,2 45225  53.0535 118.0417 0001498  92.7377 267.3784 15.06400630319522
STARLINK-1221,45227,53.0683,0.0004473,15.37727667,449.7750611628562,455.8860447357256,1 45227U 20012BB  25328.50551828  .00016383  00000+0  44505-3 0  9990,2 45227  53.0683  46.4602 0004473  47.3804 312.7576 15.37727667320505
STARLINK-1222,45228,53.0547,0.0001232,15.06398093,546.364198962382,548.0706062871895,1 45228U 20012BC  25328.70912816  .00001948  00000+0  14962-3 0  9996,2 45228  53.0547 117.8938 0001232  88.1288 271.9842 15.06398093319467
STARLINK-1226,45229,53.0548,0.0001422,15.06393474,546.2467718514426,548.2163466696957,1 45229U 20012BD  25328.67226734  .00002249  00000+0  16989-3 0  9996,2 45229  53.0548 118.0579 0001422  85.2166 274.8985 15.06393474319465
STARLINK-1227,45230,53.054,0.000179,15.06406764,545.9511936489498,548.430461011134,1 45230U 20012BE  25328.66858921  .00001764  00000+0  13727-3 0  9994,2 45230  53.0540 118.0746 0001790 124.1451 235.9708 15.06406764319584
STARLINK-1246,45235,53.0539,0.0001328,15.06397621,546.2991619834547,548.1385364970129,1 45235U 20012BK  25328.68332593  .00001272  00000+0  10425-3 0  9999,2 45235  53.0539 158.0101 0001328  94.7479 265.3662 15.06397621319032
STARLINK-1270,45237,53.0539,0.0001361,15.06398345,546.2740896504765,548.1591709086388,1 45237U 20012BM  25328.68699604 -.00001590  00000+0 -87844-4 0  9995,2 45237  53.0539 117.9912 0001361 104.0558 256.0583 15.06398345319570
STARLINK-1279,45360,53.0504,0.0008313,15.38052985,446.1895113892806,457.54507652841676,1 45360U 20019A   25328.78510902  .00063354  00000+0  16619-2 0  9997,2 45360  53.0504 239.8937 0008313  91.5844 268.6111 15.38052985314430
STARLINK-1301,45361,53.0515,0.0007764,15.40809643,438.422013913676,449.01499113799673,1 45361U 20019B   25328.70819296  .00072880  00000+0  17432-2 0  9996,2 45361  53.0515 249.5430 0007764  85.0242 275.1649 15.40809643314307
STARLINK-1306,45362,53.0415,0.0006062,15.79319397,328.299949730902,336.435765820469,1 45362U 20019C   25328.91670139  .00151484  00000+0  81243-3 0  9991,2 45362  53.0415 232.4506 0006062  64.9380 351.1012 15.79319397  5974
STARLINK-1262,45366,53.0568,0.0001988,15.06398791,545.8385033216728,548.5920233815814,1 45366U 20019G   25328.59854106 -.00000281  00000+0  27641-7 0  9992,2 45366  53.0568 278.3847 0001988  92.5603 267.5613 15.06398791313896
STARLINK-1273,45367,53.0545,0.0001729,15.06408476,545.9881920667094,548.3829686149911,1 45367U 20019H   25328.15623355  .00003204  00000+0  23385-3 0  9999,2 45367  53.0545 280.3781 0001729 106.8364 253.2815 15.06408476313829
STARLINK-1276,45368,53.0543,0.0001814,15.06386955,545.9952737919521,548.507804754001,1 45368U 20019J   25328.59118031  .00001720  00000+0  13441-3 0  9991,2 45368  53.0543 278.4231 0001814 100.3290 259.7904 15.06386955313892
STARLINK-1277,45369,53.0543,0.000147,15.06400744,546.1912517835517,548.2273035891913,1 45369U 20019K   25328.58388308  .00003605  00000+0  26075-3 0  9998,2 45369  53.0543 279.0797 0001470  89.7440 270.3718 15.06400744313886
STARLINK-1281,45370,53.0564,0.0001724,15.06394184,546.035450033507,548.423316362434,1 45370U 20019L   25328.58012097  .00001853  00000+0  14328-3 0  9990,2 45370  53.0564 278.4762 0001724  98.1775 261.9410 15.06394184313899
STARLINK-1300,45374,53.0537,0.0002207,15.06398629,545.6873345049034,548.7441852131051,1 45374U 20019Q   25328.60224351  .00004237  00000+0  30319-3 0  9992,2 45374  53.0537 278.3720 0002207  87.0606 273.0636 15.06398629313895
STARLINK-1302,45375,53.0553,0.0001881,15.06406682,545.8884244347701,548.4937328579563,1 45375U 20019R   25328.28524231  .00009494  00000+0  65526-3 0  9995,2 45375  53.0553 279.7963 0001881  90.0300 270.0905 15.06406682313840
STARLINK-1304,45376,53.055,0.0001451,15.06394474,546.2236238509267,548.233364917397,1 45376U 20019S   25328.23733056 -.00000212  00000+0  46497-5 0  9996,2 45376  53.0550 280.0128 0001451  85.5440 274.5715 15.06394474313835
STARLINK-1305,45377,53.0535,0.0007322,15.34831214,456.41395639187067,466.42980641780014,1 45377U 20019T   25328.55087543  .00097710  00000+0  28245-2 0  9991,2 45377  53.0535 271.8158 0007322  77.2360 282.9459 15.34831214313985
STARLINK-1319,45379,53.0544,0.0005612,15.39460684,443.87237934037694,451.53370220213856,1 45379U 20019V   25328.24012405  .00114897  00000+0  28529-2 0  9995,2 45379  53.0544 274.9181 0005612  92.2572 267.9074 15.39460684313912
STARLINK-1266,45383,53.0542,0.000192,15.06416844,545.8302769739648,548.4895909966153,1 45383U 20019Z   25328.52299603  .00011871  00000+0  81411-3 0  9996,2 45383  53.0542 258.7328 0001920  86.8588 273.2621 15.06416844314150
